{"type": "FeatureCollection", "features": [{"type": "Feature", "properties": {"ma_xa": "25942", "ten_xa": "Dĩ An", "sap_nhap": "An Bình, Dĩ An, Tân Đông Hiệp (1 phần)", "tru_so": "10 Trung tâm hành chính, phường Dĩ An, tỉnh Bình Dương cũ", "loai": "Phường", "cap": 2, "stt": 29, "dtich_km2": 21.38, "dan_so": 227817, "matdo_km2": 10655.61, "ma_tinh": "79", "ten_tinh": "TP. Hồ Chí Minh"}, "geometry": {"type": "MultiPolygon", "coordinates": [[[[106.75968900000004, 10.927700000000073], [106.75885600000004, 10.928111000000058], [106.75827800000008, 10.928397000000075], [106.75804000000005, 10.928515000000061], [106.75744800000007, 10.928807000000063], [106.75668100000007, 10.929186000000072], [106.75622900000008, 10.929410000000075], [106.75621900000004, 10.929414000000065], [106.75592100000006, 10.92971300000005], [106.75566900000007, 10.930052000000046], [106.75545000000005, 10.93034700000004], [106.75541400000009, 10.930400000000077], [106.75402600000007, 10.932407000000069], [106.75318500000009, 10.933623000000068], [106.75240800000006, 10.934761000000037], [106.75221900000008, 10.935039000000074], [106.75178200000005, 10.935721000000058], [106.75146100000006, 10.936172000000056], [106.75132400000007, 10.936365000000023], [106.75103300000006, 10.936773000000073], [106.75080500000007, 10.937094000000059], [106.75074100000006, 10.937185000000056], [106.75073900000007, 10.937187000000051], [106.75072000000006, 10.93721400000004], [106.75070300000004, 10.937198000000024], [106.75029300000006, 10.936910000000069], [106.74960200000004, 10.936423000000048], [106.74672200000003, 10.934668000000045], [106.74675600000006, 10.934622000000047], [106.74712800000003, 10.934129000000041], [106.74606900000003, 10.934117000000072], [106.74604300000004, 10.934116000000074], [106.74604300000004, 10.934110000000032], [106.74604400000004, 10.934033000000056], [106.74604400000004, 10.93400900000006], [106.74604400000004, 10.933969000000047], [106.74565600000005, 10.933762000000058], [106.74559900000008, 10.933727000000033], [106.74521500000009, 10.933490000000063], [106.74484000000007, 10.933372000000077], [106.74482900000004, 10.933369000000027], [106.74512500000009, 10.932533000000035], [106.74514100000005, 10.932489000000032], [106.74513300000007, 10.932487000000037], [106.74507600000004, 10.932473000000073], [106.74490200000008, 10.932430000000068], [106.74484700000005, 10.932416000000046], [106.74476900000008, 10.932401000000027], [106.74467900000008, 10.932387000000062], [106.74464900000004, 10.932383000000073], [106.74438700000007, 10.93234300000006], [106.74432300000007, 10.93233900000007], [106.74430300000006, 10.932338000000072], [106.74400900000006, 10.932297000000062], [106.74396300000006, 10.93229100000002], [106.74310800000006, 10.932173000000034], [106.74239200000005, 10.93214400000005], [106.74227400000007, 10.93214000000006], [106.74217800000008, 10.932135000000073], [106.74211600000007, 10.932133000000022], [106.74210000000005, 10.931885000000023], [106.74204100000009, 10.930949000000055], [106.74203300000005, 10.930826000000025], [106.74199100000004, 10.930164000000048], [106.74190400000003, 10.929012000000057], [106.74188000000004, 10.928780000000074], [106.74183300000004, 10.928334000000063], [106.74183300000004, 10.928329000000076], [106.74183000000005, 10.928297000000043], [106.74181300000004, 10.928101000000026], [106.74178000000006, 10.92770900000005], [106.74176800000004, 10.927558000000033], [106.74176000000006, 10.927454000000068], [106.74175200000008, 10.927352000000042], [106.74174100000005, 10.927197000000035], [106.74173100000007, 10.926993000000039], [106.74175800000006, 10.926871000000062], [106.74176000000006, 10.926860000000033], [106.74175500000007, 10.92678600000005], [106.74173300000007, 10.926433000000031], [106.74160700000004, 10.924168000000066], [106.74148600000007, 10.921932000000027], [106.74136600000008, 10.919809000000043], [106.74121900000006, 10.917492000000038], [106.74111700000009, 10.91575400000005], [106.74104700000004, 10.914471000000049], [106.74098400000008, 10.913275000000056], [106.74087600000007, 10.911389000000042], [106.74079400000005, 10.909722000000045], [106.74078200000008, 10.909477000000038], [106.74076900000006, 10.909197000000063], [106.74074400000006, 10.908673000000022], [106.74071100000003, 10.90789200000006], [106.74069400000008, 10.907473000000039], [106.74069300000008, 10.907463000000064], [106.74069100000008, 10.907406000000037], [106.74068800000003, 10.907329000000061], [106.74066400000004, 10.906751000000042], [106.74064900000008, 10.906497000000059], [106.74062800000007, 10.906126000000029], [106.74056600000006, 10.905031000000065], [106.74055500000009, 10.904850000000067], [106.74054900000004, 10.904723000000047], [106.74053000000004, 10.904320000000041], [106.74049800000006, 10.903629000000024], [106.74047400000006, 10.903122000000053], [106.74045500000005, 10.902850000000058], [106.74031600000006, 10.900806000000046], [106.74018700000005, 10.898799000000054], [106.74014200000005, 10.897883000000036], [106.74014000000005, 10.897846000000072], [106.74013000000008, 10.897690000000068], [106.74010500000009, 10.897278000000028], [106.74008000000003, 10.896869000000038], [106.74005000000005, 10.896386000000064], [106.73994200000004, 10.894721000000061], [106.73993100000007, 10.894561000000067], [106.73990200000009, 10.893912000000057], [106.73988800000006, 10.893670000000043], [106.73983300000003, 10.892670000000066], [106.73981400000008, 10.89200900000003], [106.73979200000008, 10.891253000000063], [106.73972700000007, 10.890422000000058], [106.73958500000003, 10.889867000000038], [106.73940000000005, 10.889402000000075], [106.73897800000009, 10.888615000000073], [106.73889000000008, 10.88846600000005], [106.73816800000009, 10.887247000000059], [106.73814600000009, 10.887207000000046], [106.73780700000003, 10.886584000000028], [106.73760700000008, 10.886220000000037], [106.73740600000008, 10.885857000000044], [106.73707700000006, 10.885256000000027], [106.73695500000008, 10.885042000000055], [106.73683600000004, 10.884834000000069], [106.73679500000009, 10.884762000000023], [106.73672300000004, 10.884637000000055], [106.73669200000006, 10.884583000000077], [106.73658900000004, 10.884403000000077], [106.73617500000006, 10.88370100000003], [106.73580300000003, 10.88307100000003], [106.73569200000009, 10.88287500000007], [106.73550700000004, 10.882539000000065], [106.73540700000007, 10.88236500000005], [106.73515400000008, 10.881926000000021], [106.73499300000009, 10.881668000000047], [106.73482500000006, 10.881399000000044], [106.73469600000004, 10.881222000000037], [106.73449000000005, 10.880952000000036], [106.73443200000008, 10.880878000000052], [106.73431400000004, 10.880716000000064], [106.73419600000005, 10.880554000000075], [106.73417500000005, 10.880525000000034], [106.73418600000008, 10.880517000000054], [106.73421900000005, 10.88050000000004], [106.73433500000004, 10.880457000000035], [106.73436200000003, 10.880453000000045], [106.73443400000008, 10.880441000000076], [106.73450700000006, 10.88042900000005], [106.73454300000009, 10.880420000000072], [106.73457900000005, 10.880412000000035], [106.73461800000007, 10.88040200000006], [106.73465600000009, 10.880391000000031], [106.73473500000006, 10.880363000000045], [106.73482200000007, 10.880332000000067], [106.73491200000007, 10.880306000000076], [106.73506500000008, 10.880252000000041], [106.73509300000006, 10.880244000000062], [106.73518800000005, 10.880231000000038], [106.73522300000008, 10.880228000000045], [106.73528400000004, 10.880231000000038], [106.73543900000004, 10.880245000000059], [106.73548400000004, 10.880151000000069], [106.73552300000006, 10.880086000000063], [106.73554200000007, 10.880060000000071], [106.73558400000007, 10.880016000000069], [106.73558600000007, 10.880014000000074], [106.73560800000007, 10.87999000000002], [106.73569000000003, 10.879913000000045], [106.73578700000007, 10.879831000000024], [106.73590100000007, 10.879729000000054], [106.73608200000007, 10.879580000000033], [106.73633400000006, 10.880039000000068], [106.73641300000008, 10.880184000000042], [106.73641800000007, 10.88018100000005], [106.73661200000004, 10.880081000000075], [106.73666100000008, 10.880052000000035], [106.73700300000007, 10.879846000000043], [106.73700400000007, 10.879845000000046], [106.73721000000006, 10.880211000000031], [106.73724200000004, 10.88026700000006], [106.73773400000005, 10.879961000000037], [106.73774800000007, 10.87995200000006], [106.73800700000004, 10.879801000000043], [106.73820900000004, 10.879657000000066], [106.73832500000009, 10.879521000000068], [106.73840700000005, 10.879425000000026], [106.73846100000009, 10.879476000000068], [106.73846500000008, 10.879480000000058], [106.73883200000006, 10.879826000000037], [106.73893600000008, 10.879944000000023], [106.73910900000004, 10.880176000000063], [106.73915700000003, 10.880245000000059], [106.73916900000006, 10.880261000000075], [106.73933700000003, 10.880498000000046], [106.73934200000008, 10.880505000000028], [106.73946400000005, 10.880697000000055], [106.73946400000005, 10.880698000000052], [106.73954900000007, 10.880847000000074], [106.73960700000003, 10.880967000000055], [106.73962400000005, 10.881013000000053], [106.73964500000005, 10.88102900000007], [106.73969600000004, 10.881031000000064], [106.73976400000004, 10.881004000000075], [106.73987700000004, 10.880886000000032], [106.73993100000007, 10.880851000000064], [106.74000100000006, 10.880822000000023], [106.74015800000006, 10.880735000000072], [106.74022800000006, 10.880697000000055], [106.74026100000003, 10.880697000000055], [106.74029400000006, 10.880711000000076], [106.74061300000005, 10.880908000000034], [106.74078600000007, 10.881013000000053], [106.74091900000008, 10.881101000000058], [106.74106700000004, 10.88122100000004], [106.74112900000006, 10.881296000000077], [106.74114900000006, 10.881317000000024], [106.74117100000007, 10.881332000000043], [106.74119300000007, 10.881334000000038], [106.74121700000006, 10.88132500000006], [106.74129500000004, 10.881273000000022], [106.74136500000009, 10.881224000000032], [106.74152100000003, 10.881126000000052], [106.74165200000004, 10.881044000000031], [106.74167400000005, 10.881030000000067], [106.74178600000005, 10.880959000000075], [106.74206000000004, 10.880805000000066], [106.74212400000005, 10.880768000000046], [106.74219100000005, 10.88072900000003], [106.74221700000004, 10.880714000000069], [106.74235500000009, 10.880636000000038], [106.74259200000006, 10.880505000000028], [106.74272800000006, 10.880435000000034], [106.74282800000009, 10.880377000000067], [106.74288300000006, 10.880349000000024], [106.74293000000006, 10.880328000000077], [106.74296000000004, 10.880317000000048], [106.74314700000008, 10.880249000000049], [106.74318000000005, 10.880295000000046], [106.74329000000006, 10.880468000000064], [106.74331900000004, 10.880513000000064], [106.74339800000007, 10.880645000000072], [106.74347800000004, 10.880777000000023], [106.74350900000007, 10.880811000000051], [106.74351000000007, 10.880812000000049], [106.74354900000009, 10.880835000000047], [106.74357700000007, 10.880841000000032], [106.74360200000007, 10.880841000000032], [106.74361500000003, 10.880840000000035], [106.74363000000005, 10.88083800000004], [106.74366400000008, 10.88082300000002], [106.74368500000008, 10.880805000000066], [106.74376300000006, 10.880705000000034], [106.74386800000008, 10.880761000000064], [106.74397400000004, 10.880816000000038], [106.74403100000006, 10.880847000000074], [106.74441700000006, 10.88114500000006], [106.74450900000005, 10.881216000000052], [106.74453800000003, 10.881232000000068], [106.74457400000006, 10.881252000000075], [106.74457800000005, 10.88125400000007], [106.74472900000006, 10.881338000000028], [106.74487500000004, 10.881440000000055], [106.74496300000004, 10.88151700000003], [106.74499300000008, 10.881545000000074], [106.74503200000004, 10.881579000000045], [106.74520200000006, 10.88135200000005], [106.74540100000007, 10.881086000000039], [106.74541700000009, 10.881098000000065], [106.74541900000008, 10.881099000000063], [106.74542600000007, 10.881089000000031], [106.74555800000007, 10.880913000000021], [106.74556900000005, 10.880898000000059], [106.74566200000004, 10.88077400000003], [106.74558400000006, 10.880705000000034], [106.74555300000009, 10.880677000000048], [106.74541400000004, 10.880576000000076], [106.74538900000005, 10.880559000000062], [106.74504100000007, 10.880327000000023], [106.74469400000004, 10.880085000000065], [106.74467200000004, 10.880070000000046], [106.74472200000008, 10.880011000000025], [106.74472600000007, 10.880006000000037], [106.74474700000007, 10.879979000000048], [106.74476100000004, 10.879962000000035], [106.74481300000008, 10.879899000000023], [106.74482400000005, 10.879889000000048], [106.74484900000004, 10.879857000000072], [106.74486900000005, 10.879826000000037], [106.74491200000006, 10.879774000000054], [106.74497000000008, 10.879702000000066], [106.74498600000004, 10.879683000000057], [106.74499600000007, 10.879689000000042], [106.74500300000005, 10.879679000000067], [106.74503100000004, 10.879640000000052], [106.74513700000006, 10.879509000000041], [106.74516000000006, 10.879529000000048], [106.74521100000004, 10.879469000000029], [106.74527400000005, 10.87939700000004], [106.74530000000004, 10.879367000000059], [106.74538400000006, 10.879269000000022], [106.74545200000006, 10.879192000000046], [106.74547100000007, 10.879175000000032], [106.74549300000007, 10.879147000000046], [106.74555100000003, 10.879071000000067], [106.74571700000007, 10.878891000000067], [106.74575900000008, 10.878840000000025], [106.74582400000008, 10.878762000000052], [106.74584100000004, 10.878743000000043], [106.74594400000007, 10.878612000000032], [106.74602000000004, 10.878528000000074], [106.74617400000005, 10.878366000000028], [106.74619900000005, 10.878342000000032], [106.74620000000004, 10.878341000000034], [106.74631300000004, 10.878239000000065], [106.74637200000006, 10.87820000000005], [106.74642300000005, 10.878167000000076], [106.74656100000004, 10.878027000000031], [106.74658600000004, 10.878002000000038], [106.74659200000008, 10.877999000000045], [106.74661000000003, 10.877983000000029], [106.74661700000007, 10.877978000000041], [106.74668000000008, 10.877909000000045], [106.74687300000005, 10.877701000000059], [106.74694500000004, 10.877620000000036], [106.74695300000008, 10.877611000000059], [106.74695400000007, 10.877611000000059], [106.74695900000006, 10.877613000000053], [106.74697000000003, 10.877617000000043], [106.74699000000004, 10.877593000000047], [106.74710200000004, 10.877458000000047], [106.74716500000005, 10.877382000000068], [106.74759200000005, 10.87762200000003], [106.74761700000005, 10.877636000000052], [106.74765000000008, 10.877655000000061], [106.74768700000004, 10.877676000000065], [106.74796600000008, 10.877846000000034], [106.74815500000005, 10.877962000000025], [106.74822800000004, 10.878023000000042], [106.74825600000008, 10.878048000000035], [106.74831400000005, 10.878104000000064], [106.74830500000007, 10.878116000000034], [106.74837700000006, 10.878187000000025], [106.74848100000008, 10.87826700000005], [106.74851500000005, 10.878224000000046], [106.74855600000006, 10.878179000000046], [106.74855500000007, 10.878178000000048], [106.74854700000009, 10.87817300000006], [106.74849500000005, 10.878141000000028], [106.74847900000009, 10.878101000000072], [106.74848100000008, 10.878090000000043], [106.74848300000008, 10.878070000000037], [106.74866000000009, 10.877823000000035], [106.74875100000008, 10.877697000000069], [106.74882300000007, 10.877597000000037], [106.74889600000006, 10.877496000000065], [106.74892700000004, 10.877452000000062], [106.74893500000007, 10.877441000000033], [106.74895200000009, 10.877368000000047], [106.74901200000005, 10.877286000000026], [106.74918500000007, 10.877045000000066], [106.74919800000004, 10.877028000000053], [106.74923400000006, 10.877010000000041], [106.74924500000009, 10.876995000000022], [106.74930400000005, 10.876916000000051], [106.74937600000004, 10.876817000000074], [106.74939900000004, 10.876787000000036], [106.74940200000009, 10.876783000000046], [106.74992900000007, 10.877041000000077], [106.75001200000008, 10.87708200000003], [106.75008700000006, 10.877118000000053], [106.75011600000005, 10.877133000000072], [106.75021600000008, 10.877183000000059], [106.75022600000005, 10.877188000000046], [106.75027000000006, 10.877211000000045], [106.75037300000008, 10.87726200000003], [106.75078500000006, 10.876561000000038], [106.75125500000007, 10.87579500000004], [106.75135200000005, 10.875636000000043], [106.75139100000007, 10.875573000000031], [106.75142500000004, 10.875508000000025], [106.75132000000008, 10.875473000000056], [106.75047700000005, 10.875174000000072], [106.75035700000006, 10.87513800000005], [106.75002100000006, 10.875043000000062], [106.74988600000006, 10.875000000000057], [106.74967000000004, 10.87493100000006], [106.74943200000007, 10.874855000000025], [106.74909300000007, 10.874745000000075], [106.74883500000004, 10.874662000000058], [106.74874500000004, 10.874632000000076], [106.74812100000008, 10.874428000000023], [106.74765600000006, 10.874275000000068], [106.74745100000007, 10.874209000000064], [106.74720900000005, 10.874131000000034], [106.74673600000006, 10.873980000000074], [106.74673500000006, 10.873980000000074], [106.74643100000009, 10.873876000000052], [106.74647600000009, 10.873745000000042], [106.74647900000008, 10.873737000000062], [106.74668500000007, 10.873133000000053], [106.74685700000003, 10.872629000000074], [106.74699300000009, 10.872194000000036], [106.74702900000005, 10.87206800000007], [106.74681600000008, 10.871998000000076], [106.74633700000004, 10.871841000000074], [106.74602300000004, 10.871731000000068], [106.74598800000007, 10.871718000000044], [106.74611100000004, 10.871473000000037], [106.74620100000004, 10.871327000000065], [106.74627800000007, 10.87119000000007], [106.74642200000005, 10.870938000000024], [106.74648600000006, 10.870824000000027], [106.74668300000008, 10.870512000000076], [106.74693800000006, 10.870105000000024], [106.74705700000004, 10.869911000000059], [106.74728500000003, 10.869538000000034], [106.74736100000007, 10.869433000000072], [106.74739000000005, 10.869410000000073], [106.74748900000009, 10.869390000000067], [106.74780300000003, 10.869336000000033], [106.74785900000006, 10.869312000000036], [106.74788900000004, 10.869279000000063], [106.74790800000005, 10.869207000000074], [106.74790600000006, 10.86915300000004], [106.74789600000008, 10.868857000000048], [106.74787500000008, 10.868653000000052], [106.74788200000006, 10.868374000000074], [106.74788400000006, 10.868298000000038], [106.74788700000005, 10.868205000000046], [106.74791700000009, 10.867905000000064], [106.74793400000004, 10.867734000000041], [106.74794500000007, 10.867494000000022], [106.74793100000005, 10.86735200000004], [106.74795800000004, 10.86729900000006], [106.74807100000004, 10.867071000000067], [106.74811900000009, 10.867004000000065], [106.74810800000006, 10.866931000000022], [106.74810800000006, 10.866887000000077], [106.74817500000006, 10.86672900000002], [106.74829500000004, 10.86654100000004], [106.74850900000007, 10.866104000000064], [106.74870100000004, 10.865642000000037], [106.74878100000006, 10.865666000000033], [106.74908700000009, 10.86579400000005], [106.74939600000005, 10.865279000000044], [106.74967400000008, 10.864832000000035], [106.75000000000006, 10.864308000000051], [106.75001900000007, 10.864270000000033], [106.75025900000009, 10.86440600000003], [106.75050700000008, 10.864026000000024], [106.75057000000004, 10.864064000000042], [106.75078900000005, 10.864194000000055], [106.75079700000003, 10.864199000000042], [106.75109300000008, 10.864371000000062], [106.75115800000003, 10.864404000000036], [106.75119600000005, 10.864407000000028], [106.75123000000008, 10.864402000000041], [106.75125800000006, 10.864383000000032], [106.75128200000006, 10.864353000000051], [106.75134900000006, 10.86424100000005], [106.75135700000004, 10.864228000000026], [106.75141200000007, 10.864156000000037], [106.75154200000009, 10.86395600000003], [106.75156400000009, 10.863905000000045], [106.75157100000007, 10.863869000000022], [106.75157500000006, 10.863762000000065], [106.75157400000006, 10.863638000000037], [106.75158400000004, 10.863600000000076], [106.75161300000008, 10.863548000000037], [106.75166100000007, 10.863489000000072], [106.75167600000009, 10.863478000000043], [106.75168600000006, 10.863470000000063], [106.75169900000009, 10.863464000000022], [106.75171100000006, 10.86346100000003], [106.75172800000007, 10.863459000000034], [106.75174500000008, 10.863458000000037], [106.75178200000005, 10.86345700000004], [106.75199500000008, 10.863525000000038], [106.75220800000005, 10.863594000000035], [106.75240900000006, 10.863695000000064], [106.75256500000006, 10.863841000000036], [106.75265800000005, 10.86401200000006], [106.75267600000006, 10.864045000000033], [106.75276200000008, 10.86426300000005], [106.75282700000008, 10.864427000000035], [106.75295700000004, 10.864567000000022], [106.75304200000005, 10.864669000000049], [106.75320400000004, 10.86485300000004], [106.75336000000004, 10.864954000000068], [106.75373200000007, 10.865241000000026], [106.75365700000003, 10.86539700000003], [106.75362900000005, 10.865463000000034], [106.75359700000007, 10.865551000000039], [106.75356500000004, 10.865691000000027], [106.75387000000006, 10.86582500000003], [106.75406500000008, 10.865922000000069], [106.75436500000006, 10.86616900000007], [106.75468200000006, 10.866339000000039], [106.75480600000009, 10.866379000000052], [106.75493100000006, 10.86642100000006], [106.75517300000007, 10.866419000000064], [106.75573500000007, 10.866392000000076], [106.75595300000003, 10.866414000000077], [106.75609800000007, 10.86642900000004], [106.75651100000005, 10.866585000000043], [106.75692000000004, 10.866779000000065], [106.75692900000007, 10.866783000000055], [106.75706500000007, 10.866851000000054], [106.75722500000006, 10.866931000000022], [106.75754200000006, 10.867091000000073], [106.75769900000006, 10.867039000000034], [106.75813800000009, 10.867136000000073], [106.75822300000004, 10.867151000000035], [106.75858800000009, 10.867093000000068], [106.75922600000007, 10.866931000000022], [106.75956900000006, 10.866895000000056], [106.76007200000004, 10.866960000000063], [106.76019900000006, 10.86700600000006], [106.76033700000005, 10.867056000000048], [106.76041200000009, 10.867083000000036], [106.76062100000007, 10.86716000000007], [106.76071400000006, 10.86719400000004], [106.76139400000005, 10.867287000000033], [106.76199200000008, 10.867274000000066], [106.76214100000004, 10.867271000000073], [106.76224100000007, 10.867269000000022], [106.76233700000006, 10.867275000000063], [106.76243000000005, 10.867444000000035], [106.76298200000008, 10.868322000000035], [106.76318300000008, 10.868708000000026], [106.76331900000008, 10.869079000000056], [106.76339400000006, 10.869502000000068], [106.76340700000009, 10.869876000000033], [106.76334400000007, 10.869906000000071], [106.76320400000009, 10.869972000000075], [106.76316100000008, 10.869992000000025], [106.76291500000008, 10.870123000000035], [106.76257600000008, 10.87045500000005], [106.76252500000004, 10.870528000000036], [106.76228100000009, 10.870880000000056], [106.76219500000008, 10.871117000000027], [106.76200700000004, 10.871248000000037], [106.76166700000005, 10.871474000000035], [106.76140000000004, 10.871653000000038], [106.76038800000003, 10.872384000000068], [106.76081900000008, 10.87298400000003], [106.76096100000007, 10.873151000000064], [106.76137100000005, 10.87363300000004], [106.76147800000007, 10.873800000000074], [106.76153900000008, 10.873917000000063], [106.76157200000006, 10.873981000000072], [106.76169400000003, 10.87426400000004], [106.76169900000008, 10.874275000000068], [106.76173000000006, 10.874348000000055], [106.76174800000007, 10.874389000000065], [106.76131800000007, 10.874525000000062], [106.76132300000006, 10.874666000000047], [106.76133100000004, 10.874868000000049], [106.76167700000008, 10.875235000000032], [106.76183100000009, 10.875455000000045], [106.76180700000003, 10.87572300000005], [106.76186900000005, 10.875732000000028], [106.76181800000006, 10.876038000000051], [106.76182200000005, 10.876041000000043], [106.76179000000008, 10.876359000000036], [106.76177400000006, 10.876516000000038], [106.76158500000008, 10.877462000000037], [106.76153800000009, 10.877697000000069], [106.76150500000006, 10.877969000000064], [106.76147700000007, 10.878203000000042], [106.76146300000005, 10.878259000000071], [106.76140300000009, 10.878513000000055], [106.76140300000009, 10.878514000000052], [106.76156600000007, 10.878573000000074], [106.76167100000004, 10.878611000000035], [106.76170800000006, 10.878624000000059], [106.76170800000006, 10.878625000000056], [106.76177000000007, 10.878647000000058], [106.76184700000005, 10.878674000000046], [106.76197300000007, 10.878719000000046], [106.76183800000007, 10.878985000000057], [106.76172100000008, 10.879214000000047], [106.76163300000007, 10.879388000000063], [106.76146500000004, 10.879718000000025], [106.76128000000006, 10.880041000000062], [106.76122800000007, 10.880130000000065], [106.76105800000005, 10.880426000000057], [106.76063800000009, 10.881038000000046], [106.76055900000006, 10.88119400000005], [106.76052600000008, 10.881257000000062], [106.76054200000004, 10.881274000000076], [106.76058300000005, 10.881328000000053], [106.76076600000005, 10.881560000000036], [106.76077500000008, 10.881572000000062], [106.76083700000004, 10.881650000000036], [106.76107600000006, 10.881916000000047], [106.76115900000008, 10.882003000000054], [106.76119000000006, 10.882025000000056], [106.76124000000004, 10.882063000000073], [106.76126600000003, 10.882079000000033], [106.76136100000008, 10.882139000000052], [106.76137600000004, 10.882150000000024], [106.76146400000005, 10.88221100000004], [106.76166300000006, 10.882364000000052], [106.76172200000008, 10.882411000000047], [106.76182000000006, 10.882554000000027], [106.76224300000007, 10.882877000000065], [106.76274700000005, 10.883210000000076], [106.76360500000004, 10.883824000000061], [106.76362600000004, 10.883823000000064], [106.76377900000006, 10.883816000000024], [106.76413500000007, 10.884904000000063], [106.76450900000003, 10.884883000000059], [106.76454400000006, 10.884877000000074], [106.76463400000006, 10.885545000000036], [106.76458200000008, 10.88555800000006], [106.76458500000007, 10.885586000000046], [106.76461100000006, 10.885789000000045], [106.76464300000004, 10.88582800000006], [106.76464900000008, 10.886279000000059], [106.76475800000009, 10.886374000000046], [106.76499600000005, 10.88666500000005], [106.76505000000009, 10.886712000000045], [106.76506200000006, 10.886834000000022], [106.76510800000005, 10.88682700000004], [106.76514100000009, 10.887009000000035], [106.76518200000004, 10.887233000000037], [106.76518400000003, 10.887244000000067], [106.76519600000006, 10.887305000000026], [106.76523700000007, 10.887511000000075], [106.76530000000008, 10.887654000000055], [106.76533400000005, 10.887733000000026], [106.76534100000003, 10.887749000000042], [106.76540600000004, 10.887812000000054], [106.76550100000009, 10.887905000000046], [106.76563300000004, 10.888063000000045], [106.76574800000009, 10.888201000000038], [106.76582700000006, 10.888296000000025], [106.76590000000004, 10.888473000000033], [106.76590200000004, 10.888478000000077], [106.76594600000004, 10.888465000000053], [106.76601500000004, 10.888445000000047], [106.76616300000006, 10.888839000000075], [106.76637200000005, 10.889830000000075], [106.76642400000009, 10.890030000000024], [106.76647800000006, 10.890393000000074], [106.76687000000004, 10.89153600000003], [106.76720800000004, 10.891562000000022], [106.76739900000007, 10.89160000000004], [106.76764500000007, 10.891656000000069], [106.76768000000004, 10.891669000000036], [106.76756500000005, 10.891884000000061], [106.76740900000004, 10.892178000000058], [106.76725600000009, 10.892574000000025], [106.76841300000007, 10.892333000000065], [106.76843500000007, 10.892767000000049], [106.76842000000005, 10.89336000000003], [106.76841300000007, 10.893601000000046], [106.76887800000009, 10.893717000000038], [106.76900500000005, 10.893718000000035], [106.76898400000005, 10.89384300000006], [106.76897900000006, 10.893872000000044], [106.76901400000008, 10.89387800000003], [106.76900100000006, 10.894028000000048], [106.76896900000008, 10.894029000000046], [106.76882800000004, 10.894034000000033], [106.76865800000007, 10.89403900000002], [106.76857500000006, 10.89404200000007], [106.76860700000009, 10.894436000000042], [106.76866000000007, 10.895081000000062], [106.76866900000005, 10.895189000000073], [106.76868000000007, 10.895297000000028], [106.76870700000006, 10.895552000000066], [106.76872100000008, 10.895689000000061], [106.76881900000006, 10.896634000000063], [106.76875900000005, 10.896796000000052], [106.76873600000005, 10.89686000000006], [106.76869400000004, 10.89686000000006], [106.76871600000004, 10.897109000000057], [106.76875700000005, 10.897164000000032], [106.76887200000004, 10.897249000000045], [106.76891000000006, 10.897277000000031], [106.76901400000008, 10.897695000000056], [106.76917000000009, 10.89778300000006], [106.76933000000008, 10.898011000000054], [106.76941600000004, 10.898290000000031], [106.76949500000006, 10.89854900000006], [106.76937600000008, 10.898581000000036], [106.76945600000005, 10.89923600000003], [106.76946300000009, 10.89929600000005], [106.76949600000006, 10.899564000000055], [106.76950500000004, 10.899642000000028], [106.76947300000006, 10.89975000000004], [106.76945300000006, 10.899792000000048], [106.76937400000008, 10.899817000000041], [106.76931500000006, 10.899929000000043], [106.76920700000005, 10.899982000000023], [106.76922600000006, 10.900059000000056], [106.76927100000006, 10.900063000000046], [106.76904300000007, 10.900584000000038], [106.76975300000004, 10.901017000000024], [106.77031300000004, 10.901358000000073], [106.77033600000004, 10.90151000000003], [106.77048700000006, 10.901897000000076], [106.77052100000009, 10.901886000000047], [106.77072800000008, 10.902349000000072], [106.77087100000006, 10.902316000000042], [106.77089500000005, 10.902307000000064], [106.77173100000005, 10.901976000000047], [106.77203100000008, 10.901846000000035], [106.77229100000005, 10.901796000000047], [106.77230100000008, 10.901857000000064], [106.77234400000003, 10.90210600000006], [106.77241100000003, 10.902503000000024], [106.77238500000004, 10.902647000000059], [106.77284000000009, 10.902592000000027], [106.77299500000004, 10.90303300000005], [106.77306600000009, 10.903120000000058], [106.77299100000005, 10.903203000000076], [106.77295800000007, 10.903241000000037], [106.77318100000008, 10.904643000000021], [106.77325000000008, 10.905075000000068], [106.77325700000006, 10.905104000000051], [106.77452100000005, 10.904980000000023], [106.77502300000003, 10.904966000000059], [106.77505800000006, 10.904777000000024], [106.77654400000006, 10.904983000000072], [106.77744000000007, 10.904990000000055], [106.77743100000004, 10.904913000000022], [106.77770900000007, 10.904882000000043], [106.77772300000004, 10.90483800000004], [106.77817700000008, 10.904835000000048], [106.77820300000008, 10.904668000000072], [106.77923900000008, 10.904610000000048], [106.78047700000008, 10.904639000000032], [106.78091900000004, 10.904622000000074], [106.78225900000007, 10.904570000000035], [106.78239200000007, 10.904565000000048], [106.78247300000004, 10.90443300000004], [106.78274800000008, 10.903626000000031], [106.78276400000004, 10.903580000000034], [106.78340800000007, 10.903516000000025], [106.78403000000009, 10.903455000000065], [106.78438300000005, 10.903386000000069], [106.78440600000005, 10.903466000000037], [106.78715600000004, 10.902862000000027], [106.78708300000005, 10.902460000000076], [106.78708300000005, 10.902457000000027], [106.78720200000004, 10.902168000000074], [106.78722100000005, 10.902172000000064], [106.78768500000007, 10.902278000000024], [106.78814900000003, 10.902248000000043], [106.78815700000007, 10.902247000000045], [106.78835200000009, 10.902153000000055], [106.78843800000004, 10.901894000000027], [106.78865400000007, 10.901706000000047], [106.78893000000005, 10.901673000000073], [106.78909700000008, 10.901653000000067], [106.78910400000007, 10.90173100000004], [106.78924100000006, 10.902396000000067], [106.78926700000005, 10.902393000000075], [106.78985100000006, 10.902330000000063], [106.79024100000004, 10.903914000000043], [106.79037900000009, 10.904327000000023], [106.79082200000005, 10.904670000000067], [106.79095800000005, 10.904776000000027], [106.79139900000007, 10.904966000000059], [106.79139800000007, 10.904968000000054], [106.79290300000008, 10.905504000000064], [106.79296200000005, 10.905704000000071], [106.79300100000006, 10.905837000000076], [106.79362400000008, 10.905643000000055], [106.79384000000005, 10.90576900000002], [106.79401100000007, 10.905712000000051], [106.79435900000004, 10.90559600000006], [106.79443600000008, 10.905854000000033], [106.79446000000007, 10.905934000000059], [106.79455600000006, 10.906254000000047], [106.79465600000009, 10.906587000000059], [106.79508700000008, 10.907920000000047], [106.79512000000005, 10.908015000000034], [106.79516400000006, 10.908150000000035], [106.79516200000006, 10.908153000000027], [106.79532500000005, 10.90865400000007], [106.79548500000004, 10.90914900000007], [106.79602100000005, 10.910808000000031], [106.79617500000006, 10.911254000000042], [106.79626100000007, 10.911506000000031], [106.79645100000005, 10.911882000000048], [106.79658800000004, 10.912105000000054], [106.79686700000008, 10.91255700000005], [106.79691600000007, 10.912637000000075], [106.79692500000004, 10.912650000000042], [106.79698300000007, 10.912732000000062], [106.79694300000006, 10.912762000000043], [106.79339300000004, 10.915428000000077], [106.78909400000003, 10.917197000000044], [106.78002700000008, 10.918136000000061], [106.77630000000005, 10.918522000000053], [106.76593600000007, 10.925506000000041], [106.76364000000007, 10.930575000000033], [106.76343200000008, 10.930377000000021], [106.76330600000006, 10.930248000000063], [106.76329300000003, 10.930234000000041], [106.76321200000007, 10.930152000000021], [106.76312900000005, 10.930074000000047], [106.76311500000008, 10.93006200000002], [106.76248300000009, 10.92947300000003], [106.76239700000008, 10.929393000000061], [106.76176900000007, 10.92880800000006], [106.76119700000004, 10.928270000000055], [106.76087400000006, 10.927968000000021], [106.76077500000008, 10.927874000000031], [106.76034900000008, 10.927475000000072], [106.76027800000008, 10.92740800000007], [106.75968900000004, 10.927700000000073]]]]}}]}